{
  "type": "FeatureCollection",
  "features": [
    {
      "type": "Feature",
      "properties": {
        "norad_id": 32376,
        "name": "COSMO-SKYMED 2",
        "group": "resource",
        "lat": 38.70644303152109,
        "lon": 3.7953357840446436,
        "alt_km": 619.1737395312366,
        "timestamp": "2025-12-22T05:49:03.138852+00:00",
        "meta_object_name": "COSMO-SKYMED 2",
        "meta_object_id": "2007-059A",
        "meta_epoch": "2025-12-21T19:27:47.287872",
        "meta_mean_motion": 14.82152957,
        "meta_eccentricity": 0.0001336,
        "meta_inclination": 97.8804,
        "meta_ra_of_asc_node": 176.9982,
        "meta_arg_of_pericenter": 83.0592,
        "meta_mean_anomaly": 277.0773,
        "meta_ephemeris_type": 0,
        "meta_classification_type": "U",
        "meta_norad_cat_id": 32376,
        "meta_element_set_no": 999,
        "meta_rev_at_epoch": 97572,
        "meta_bstar": 6.1522e-05,
        "meta_mean_motion_dot": 4.38e-06,
        "meta_mean_motion_ddot": 0,
        "tle_line1": "1 32376U 07059A   25355.81096398  .00000438  00000+0  61522-4 0  9990",
        "tle_line2": "2 32376  97.8804 176.9982 0001336  83.0592 277.0773 14.82152957975728"
      },
      "geometry": {
        "type": "Point",
        "coordinates": [
          3.7953357840446436,
          38.70644303152109
        ]
      }
    },
    {
      "type": "Feature",
      "properties": {
        "norad_id": 32382,
        "name": "RADARSAT-2",
        "group": "resource",
        "lat": 70.09399404066392,
        "lon": -154.66814988248862,
        "alt_km": 784.2297331572445,
        "timestamp": "2025-12-22T05:49:03.138863+00:00",
        "meta_object_name": "RADARSAT-2",
        "meta_object_id": "2007-061A",
        "meta_epoch": "2025-12-21T20:55:04.468800",
        "meta_mean_motion": 14.29983047,
        "meta_eccentricity": 0.0001144,
        "meta_inclination": 98.579,
        "meta_ra_of_asc_node": 0.3287,
        "meta_arg_of_pericenter": 84.3569,
        "meta_mean_anomaly": 275.7744,
        "meta_ephemeris_type": 0,
        "meta_classification_type": "U",
        "meta_norad_cat_id": 32382,
        "meta_element_set_no": 999,
        "meta_rev_at_epoch": 94061,
        "meta_bstar": -7.5714e-05,
        "meta_mean_motion_dot": -2.39e-06,
        "meta_mean_motion_ddot": 0,
        "tle_line1": "1 32382U 07061A   25355.87157950 -.00000239  00000+0 -75714-4 0  9997",
        "tle_line2": "2 32382  98.5790   0.3287 0001144  84.3569 275.7744 14.29983047940616"
      },
      "geometry": {
        "type": "Point",
        "coordinates": [
          -154.66814988248862,
          70.09399404066392
        ]
      }
    },
    {
      "type": "Feature",
      "properties": {
        "norad_id": 32783,
        "name": "CARTOSAT-2A",
        "group": "resource",
        "lat": 9.027763998089862,
        "lon": -132.98463680621708,
        "alt_km": 641.9123442661812,
        "timestamp": "2025-12-22T05:49:03.138873+00:00",
        "meta_object_name": "CARTOSAT-2A",
        "meta_object_id": "2008-021A",
        "meta_epoch": "2025-12-21T20:55:42.896928",
        "meta_mean_motion": 14.78946823,
        "meta_eccentricity": 0.0011174,
        "meta_inclination": 97.7919,
        "meta_ra_of_asc_node": 45.41,
        "meta_arg_of_pericenter": 334.8767,
        "meta_mean_anomaly": 25.19,
        "meta_ephemeris_type": 0,
        "meta_classification_type": "U",
        "meta_norad_cat_id": 32783,
        "meta_element_set_no": 999,
        "meta_rev_at_epoch": 95259,
        "meta_bstar": -6.8758e-05,
        "meta_mean_motion_dot": -5.58e-06,
        "meta_mean_motion_ddot": 0,
        "tle_line1": "1 32783U 08021A   25355.87202427 -.00000558  00000+0 -68758-4 0  9993",
        "tle_line2": "2 32783  97.7919  45.4100 0011174 334.8767  25.1900 14.78946823952592"
      },
      "geometry": {
        "type": "Point",
        "coordinates": [
          -132.98463680621708,
          9.027763998089862
        ]
      }
    },
    {
      "type": "Feature",
      "properties": {
        "norad_id": 33320,
        "name": "HUANJING 1A (HJ-1A)",
        "group": "resource",
        "lat": -8.607742209131974,
        "lon": 162.97742627734195,
        "alt_km": 636.2053765867049,
        "timestamp": "2025-12-22T05:49:03.138885+00:00",
        "meta_object_name": "HUANJING 1A (HJ-1A)",
        "meta_object_id": "2008-041A",
        "meta_epoch": "2025-12-21T20:52:32.784960",
        "meta_mean_motion": 14.83420832,
        "meta_eccentricity": 0.0019456,
        "meta_inclination": 97.6539,
        "meta_ra_of_asc_node": 343.7868,
        "meta_arg_of_pericenter": 5.5794,
        "meta_mean_anomaly": 354.5633,
        "meta_ephemeris_type": 0,
        "meta_classification_type": "U",
        "meta_norad_cat_id": 33320,
        "meta_element_set_no": 999,
        "meta_rev_at_epoch": 93211,
        "meta_bstar": 0.0001694,
        "meta_mean_motion_dot": 1.344e-05,
        "meta_mean_motion_ddot": 0,
        "tle_line1": "1 33320U 08041A   25355.86982390  .00001344  00000+0  16940-3 0  9993",
        "tle_line2": "2 33320  97.6539 343.7868 0019456   5.5794 354.5633 14.83420832932116"
      },
      "geometry": {
        "type": "Point",
        "coordinates": [
          162.97742627734195,
          -8.607742209131974
        ]
      }
    },
    {
      "type": "Feature",
      "properties": {
        "norad_id": 33321,
        "name": "HUANJING 1B (HJ-1B)",
        "group": "resource",
        "lat": 29.498248733674888,
        "lon": -16.538918911414893,
        "alt_km": 593.3558381806179,
        "timestamp": "2025-12-22T05:49:03.138896+00:00",
        "meta_object_name": "HUANJING 1B (HJ-1B)",
        "meta_object_id": "2008-041B",
        "meta_epoch": "2025-12-21T19:58:02.900928",
        "meta_mean_motion": 14.82842744,
        "meta_eccentricity": 0.0037984,
        "meta_inclination": 97.6397,
        "meta_ra_of_asc_node": 347.4238,
        "meta_arg_of_pericenter": 47.0055,
        "meta_mean_anomaly": 313.4332,
        "meta_ephemeris_type": 0,
        "meta_classification_type": "U",
        "meta_norad_cat_id": 33321,
        "meta_element_set_no": 999,
        "meta_rev_at_epoch": 93212,
        "meta_bstar": 9.5249e-05,
        "meta_mean_motion_dot": 7.29e-06,
        "meta_mean_motion_ddot": 0,
        "tle_line1": "1 33321U 08041B   25355.83197802  .00000729  00000+0  95249-4 0  9993",
        "tle_line2": "2 33321  97.6397 347.4238 0037984  47.0055 313.4332 14.82842744932128"
      },
      "geometry": {
        "type": "Point",
        "coordinates": [
          -16.538918911414893,
          29.498248733674888
        ]
      }
    },
    {
      "type": "Feature",
      "properties": {
        "norad_id": 33331,
        "name": "GEOEYE 1",
        "group": "resource",
        "lat": 60.66396680007231,
        "lon": -97.87251555533123,
        "alt_km": 673.2802024861167,
        "timestamp": "2025-12-22T05:49:03.138907+00:00",
        "meta_object_name": "GEOEYE 1",
        "meta_object_id": "2008-042A",
        "meta_epoch": "2025-12-21T19:26:31.966080",
        "meta_mean_motion": 14.64711512,
        "meta_eccentricity": 0.000286,
        "meta_inclination": 98.1241,
        "meta_ra_of_asc_node": 66.9762,
        "meta_arg_of_pericenter": 245.2347,
        "meta_mean_anomaly": 114.8558,
        "meta_ephemeris_type": 0,
        "meta_classification_type": "U",
        "meta_norad_cat_id": 33331,
        "meta_element_set_no": 999,
        "meta_rev_at_epoch": 92418,
        "meta_bstar": 9.6834e-05,
        "meta_mean_motion_dot": 4.68e-06,
        "meta_mean_motion_ddot": 0,
        "tle_line1": "1 33331U 08042A   25355.81009220  .00000468  00000+0  96834-4 0  9990",
        "tle_line2": "2 33331  98.1241  66.9762 0002860 245.2347 114.8558 14.64711512924187"
      },
      "geometry": {
        "type": "Point",
        "coordinates": [
          -97.87251555533123,
          60.66396680007231
        ]
      }
    },
    {
      "type": "Feature",
      "properties": {
        "norad_id": 33396,
        "name": "THEOS",
        "group": "resource",
        "lat": -68.81027382779683,
        "lon": -148.88531975238604,
        "alt_km": 833.0657668126032,
        "timestamp": "2025-12-22T05:49:03.138918+00:00",
        "meta_object_name": "THEOS",
        "meta_object_id": "2008-049A",
        "meta_epoch": "2025-12-21T20:11:11.661216",
        "meta_mean_motion": 14.20097855,
        "meta_eccentricity": 0.00012,
        "meta_inclination": 98.5859,
        "meta_ra_of_asc_node": 53.6621,
        "meta_arg_of_pericenter": 93.9244,
        "meta_mean_anomaly": 266.207,
        "meta_ephemeris_type": 0,
        "meta_classification_type": "U",
        "meta_norad_cat_id": 33396,
        "meta_element_set_no": 999,
        "meta_rev_at_epoch": 89279,
        "meta_bstar": -2.0536e-05,
        "meta_mean_motion_dot": -8.6e-07,
        "meta_mean_motion_ddot": 0,
        "tle_line1": "1 33396U 08049A   25355.84110719 -.00000086  00000+0 -20536-4 0  9991",
        "tle_line2": "2 33396  98.5859  53.6621 0001200  93.9244 266.2070 14.20097855892796"
      },
      "geometry": {
        "type": "Point",
        "coordinates": [
          -148.88531975238604,
          -68.81027382779683
        ]
      }
    }
  ]
}